,regionidzip,latitude,longitude,address,zipcode
0,95982.00000000001,33.986746999999994,-118.249544,"East 59th Street, Florence, LA, Los Angeles County, California, 90001, United States of America",90001
1,95983.0,33.959485,-118.26071599999999,"McKinley Avenue, Florence, LA, Los Angeles County, California, 90003, United States of America",90003
2,95984.0,33.97672,-118.26891699999999,"East 69th Street, Florence, LA, Los Angeles County, California, 90003, United States of America",90003
3,95985.0,34.077571999999996,-118.286239,"Los Angeles Fire Department Fire Station 6, 326, Oakwood Avenue, Angelino Heights, LA, Los Angeles County, California, 90004-3624, United States of America",90004
4,95986.0,34.060448,-118.330973,"South Mullen Avenue, Hancock Park, Cienega, LA, Los Angeles County, California, 90028, United States of America",90028
5,95987.0,34.040347,-118.284504,"West Washington Boulevard, Saint James Park, LA, Los Angeles County, California, 90015, United States of America",90015
6,95988.0,34.022484999999996,-118.296811,"West 36th Street, Jefferson Park, Cienega, LA, Los Angeles County, California, 90018, United States of America",90018
7,95989.0,34.00219,-118.341249,"Mount Vernon Drive, View Park, View Park–Windsor Hills, Los Angeles County, California, 90043, United States of America",90043
8,95991.0,34.0615,-118.32600000000001,"Fremont Place, Hancock Park, Cienega, LA, Los Angeles County, California, 90028, United States of America",90028
9,95992.0,33.992162,-118.271355,"East 55th Street, Florence, LA, Los Angeles County, California, 90011, United States of America",90011
10,95993.0,34.067384999999994,-118.242805,"Stadium Way, New Chinatown, Angelino Heights, LA, Los Angeles County, California, 90012, United States of America",90012
11,95994.00000000001,34.0444,-118.245,"Gateway Apartments, San Julian Street, Skid Row, Little Tokyo Historic District, LA, Los Angeles County, California, 90015, United States of America",90015
12,95995.00000000001,34.0455,-118.25200000000001,"Downtown Palace Theatre, 630, South Broadway, Historic Core District, Bunker Hill, LA, Los Angeles County, California, 90013, United States of America",90013
13,95996.0,34.046011,-118.261452,"Watermarke Tower, 705, West 9th Street, South Park, Bunker Hill, LA, Los Angeles County, California, 90015, United States of America",90015
14,95997.0,34.0188,-118.374,"Bowcroft Street, Cameo Woods, The Village Green, LA, Los Angeles County, California, 90016, United States of America",90016
15,95998.0,34.0531,-118.266,"Wilshire & Witmer, 1234, Wilshire Boulevard, Financial District, Bunker Hill, LA, Los Angeles County, California, 90007, United States of America",90007
16,95999.0,34.018833,-118.33130700000001,"Edgehill Drive, Jefferson Park, Leimert Park, LA, Los Angeles County, California, 90008, United States of America",90008
17,96000.0,34.0485,-118.351405,"South Cloverdale Avenue, Park La Brea, The Village Green, LA, Los Angeles County, California, 90019, United States of America",90019
18,96001.0,34.066976000000004,-118.315625,"West 4th Street, Windsor Square, Little Armenia, LA, Los Angeles County, California, 90048, United States of America",90048
19,96002.0,34.028102000000004,-118.25391499999999,"East 17th Street, Nevin, Jefferson, LA, Los Angeles County, California, 90021, United States of America",90021
20,96002.99999999999,34.014159,-118.14608100000001,"Allston Street, Montebello, Los Angeles County, California, 90640, United States of America",90640
21,96003.99999999999,34.024226,-118.188022,"South Townsend Avenue, East Los Angeles, Wellington Heights, Los Angeles County, California, 90023, United States of America",90023
22,96005.0,34.0597,-118.439,"Century Wilshire, Wilshire Boulevard, Westwood Village, Westwood, LA, Los Angeles County, California, 90025, United States of America",90025
23,96006.0,34.036272,-118.46283999999999,"South Carmelina Avenue, Sawtelle, Brentwood, LA, Los Angeles County, California, CA 90404, United States of America",90404
24,96007.00000000001,34.071672,-118.250933,"Sunset Boulevard, Echo Park, Angelino Heights, LA, Los Angeles County, California, 90012, United States of America",90012
25,96008.00000000001,34.102958,-118.286134,"Kingswell Avenue, Los Feliz, Little Armenia, LA, Los Angeles County, California, 90028, United States of America",90028
26,96009.0,34.099979,-118.34196100000001,"Hawthorn Hotel, North Orange Drive, Whitley Heights Historic District, LA, Los Angeles County, California, 90028, United States of America",90028
27,96010.0,34.090889000000004,-118.28079299999999,"Sanborn Avenue, Silver Lake, Atwater, LA, Los Angeles County, California, 90012, United States of America",90012
28,96012.0,34.078681,-118.213803,"Avenue 28, Rose Hill, Highland Park, LA, Los Angeles County, California, 90031, United States of America",90031
29,96013.0,34.090024,-118.16266499999999,"Stockbridge Avenue, Alhambra, Los Angeles County, California, 91030, United States of America",91030
30,96014.0,34.047282,-118.214933,"135B, Golden State Freeway, Brooklyn Heights, Boyle Heights, LA, Los Angeles County, California, 90013, United States of America",90013
31,96015.0,34.027935,-118.421885,"Veteran Avenue, Palms, LA, Los Angeles County, California, 90034, United States of America",90034
32,96015.99999999999,34.047847999999995,-118.38413600000001,"South Wooster Street, South Carthay, The Village Green, LA, Los Angeles County, California, 90035, United States of America",90035
33,96016.99999999999,34.059275,-118.34386,"South Sycamore Avenue, Hancock Park, The Village Green, LA, Los Angeles County, California, 90048, United States of America",90048
34,96017.99999999999,33.990297,-118.275168,"West 57th Street, Wildasin, Florence, LA, Los Angeles County, California, 90037, United States of America",90037
35,96019.0,34.085689,-118.33903500000001,"Waring Avenue, Wilton Historic District, Hollywood, LA, Los Angeles County, California, 90046, United States of America",90046
36,96020.00000000001,34.104348,-118.254681,"Adelbert Avenue, Silver Lake Heights, Atwater, LA, Los Angeles County, California, 90012, United States of America",90012
37,96021.00000000001,34.013502,-118.170635,"South Mc Bride Avenue, Bandini, Commerce, Los Angeles County, California, 90040, United States of America",90040
38,96022.0,34.124896,-118.223183,"York Boulevard, Eagle Rock, Highland Park, LA, Los Angeles County, California, 91204, United States of America",91204
39,96023.0,34.110288,-118.191254,"Radio Shack, N Figueroa Street, Highland Park, LA, Los Angeles County, California, 90031, United States of America",90031
40,96024.0,33.986909999999995,-118.329553,"West 59th Street, LA, Los Angeles County, California, 90043, United States of America",90043
41,96025.0,33.972924,-118.28880900000001,"West 74th Street, Wildasin, Florence, LA, Los Angeles County, California, 90044, United States of America",90044
42,96026.0,33.961232,-118.38537600000001,"Airport Boulevard, Westchester, Playa Vista, LA, Los Angeles County, California, 90045, United States of America",90045
43,96027.0,34.088167999999996,-118.3557,"North Curson Avenue, West Hollywood, Los Angeles County, California, 90046, United States of America",90046
44,96028.0,33.955375,-118.30776599999999,"South Hobart Boulevard, LA, Los Angeles County, California, 90047, United States of America",90047
45,96029.0,34.0726,-118.38,"Burton Way, Carthay Circle, LA, Los Angeles County, California, 90048, United States of America",90048
46,96029.99999999999,34.061789000000005,-118.490569,"Ashford Street, Brentwood Park, Riviera, LA, Los Angeles County, California, 90049-4013, United States of America",90049
47,96034.00000000001,34.049,-118.52799999999999,"Sunset Boulevard, Pacific Palisades, LA, Los Angeles County, California, 90272-3719, United States of America",90272
48,96037.0,33.985001000000004,-118.367713,"South Kings Road, LA, Los Angeles County, California, 90304, United States of America",90304
49,96038.0,34.053742,-118.277178,"Hollywood College School of Chiropractic, James M Wood Boulevard, Financial District, Saint James Park, LA, Los Angeles County, California, 90006, United States of America",90006
50,96039.0,33.991111,-118.24176200000001,"East 57th Street, Florence, LA, Los Angeles County, California, 90003, United States of America",90003
51,96040.0,33.930195,-118.229419,"East 115th Street, Watts, LA, Los Angeles County, California, 90059, United States of America",90059
52,96042.0,33.938538,-118.26831000000001,"East 108th Street, Jefferson, LA, Los Angeles County, California, 90037, United States of America",90037
53,96042.99999999999,33.997099,-118.30838,"West 51st Street, Wildasin, Leimert Park, LA, Los Angeles County, California, 90062, United States of America",90062
54,96044.0,34.048938,-118.192806,"Metro 71, City Terrace Drive, Boyle Heights, LA, Los Angeles County, California, 90031, United States of America",90031
55,96045.0,34.043579,-118.420247,"Los Angeles Fire Department Fire Station 92, 10556, West Pico Boulevard, Century City, Palms, LA, Los Angeles County, California, 90064-2320, United States of America",90064
56,96046.0,34.117105,-118.24237099999999,"Moss Avenue, Atwater, LA, Los Angeles County, California, 91204, United States of America",91204
57,96047.00000000001,33.9962,-118.43799999999999,"Moore Street, Culver City, Los Angeles County, California, 90232, United States of America",90232
58,96048.00000000001,34.054504,-118.415369,"Century Woods Way, Century City, Westwood, LA, Los Angeles County, California, 90067, United States of America",90067
59,96049.0,34.131929,-118.351474,"Cahuenga Boulevard West, Universal City, Hollywood Hills, LA, Los Angeles County, California, 90028, United States of America",90028
60,96050.0,34.090892,-118.38583100000001,"Whisky a Go Go, 8901, North Clark Street, Sunset Strip, West Hollywood, Los Angeles County, California, 90069, United States of America",90069
61,96058.0,34.132839000000004,-118.45101000000001,"Beverly Glen Terrace, Sherman Oaks, LA, Los Angeles County, California, 90210-1054, United States of America",90210
62,96069.0,34.022987,-118.28339199999999,"Faculty Center, West 34th Street, Saint James Park, LA, Los Angeles County, California, 90007, United States of America",90007
63,96072.0,33.9741,-118.42299999999999,"Playa Vista Medical Center, West Runway Road, Del Rey, Playa Vista, LA, Los Angeles County, California, 90045, United States of America",90045
64,96083.0,33.975454,-118.16447,"Indian Revival Church, East Gage Avenue, Bell Gardens, Los Angeles County, California, 90040, United States of America",90040
65,96086.0,34.127369,-118.40066000000002,"Summit Circle, Valley Village, LA, Los Angeles County, California, 90046, United States of America",90046
66,96087.0,34.063033000000004,-118.388038,"South Almont Drive, Beverly Hills, Los Angeles County, California, 90211, United States of America",90211
67,96088.0,34.062395,-118.408301,"Gregory Way, Beverly Hills, Los Angeles County, California, 90212, United States of America",90212
68,96090.0,33.867865,-118.221492,"West Apra Street, Compton, Los Angeles County, California, 90220, United States of America",90220
69,96091.0,33.887682,-118.190625,"Long Beach Freeway, Compton, Los Angeles County, California, 90262, United States of America",90262
70,96092.0,33.904718,-118.247072,"South Tajauta Avenue, Compton, Los Angeles County, California, 90222, United States of America",90222
71,96095.0,33.989359,-118.39463300000001,"Sprouts Farmers Market, 5660, Sepulveda Boulevard, Fox Hills, Culver City, Los Angeles County, California, 90230, United States of America",90230
72,96097.0,34.016768,-118.408671,"Panda Express, Midway Avenue, Culver City, Los Angeles County, California, 90232, United States of America",90232
73,96100.0,33.962862,-118.13456599999999,"Ciro Street, Downey, Los Angeles County, California, 90240, United States of America",90240
74,96101.0,33.950038,-118.14733899999999,"Old River School Road, Downey, Los Angeles County, California, 90240, United States of America",90240
75,96102.0,33.9323,-118.162,"Ryerson Avenue, Downey, Los Angeles County, California, 90242, United States of America",90242
76,96103.0,33.924818,-118.422525,"West Palm Avenue, El Segundo, Los Angeles County, California, 90245, United States of America",90245
77,96104.0,33.885659999999994,-118.290186,"Ainsworth Street, South Los Angeles, LA, Los Angeles County, California, 90247, United States of America",90247
78,96105.0,33.864000000000004,-118.31,"99 Cents Only, South Western Avenue, La Fresa, Torrance, Los Angeles County, California, 90504, United States of America",90504
79,96106.0,33.908939000000004,-118.323973,"Ardath Avenue, Gardena, Los Angeles County, California, 90249, United States of America",90249
80,96107.00000000001,33.901592,-118.353199,"Chevron, W Rosecrans Avenue, Hawthorne, Los Angeles County, California, 90504, United States of America",90504
81,96109.0,33.863688,-118.38594599999999,"10th Street, Redondo Beach, Los Angeles County, California, 90254, United States of America",90254
82,96110.0,33.980399,-118.20613,"Bissell Street, Huntington Park, Los Angeles County, California, 90201, United States of America",90201
83,96111.0,33.894332,-118.33721100000001,"Kornblum Avenue, La Fresa, Alondra Park, Los Angeles County, California, 90260, United States of America",90260
84,96113.0,33.919776,-118.212195,"Agnes Street, Lynwood, Los Angeles County, California, 90262, United States of America",90262
85,96114.0,34.038384,-118.70776599999999,"George Elkins Auditorium, Campus Walk, Malibu Beach, Los Angeles County, California, 90265-4797, United States of America",90265
86,96116.0,34.01977,-118.789549,"Paradise Cove Road, Paradise Cove Mobile Home Park, Los Angeles County, California, 90265, United States of America",90265
87,96117.0,33.90503,-118.41909,"North Crest Drive, El Segundo, Los Angeles County, California, 90266, United States of America",90266
88,96119.00000000001,33.99256,-118.19663700000001,"East 55th Street, Walker, Maywood, Los Angeles County, California, 90270, United States of America",90270
89,96120.00000000001,34.049881,-118.50376999999999,"Napoli Drive, Brentwood Park, Riviera, LA, Los Angeles County, California, CA 90272, United States of America",90272
90,96121.0,33.799682000000004,-118.388346,"Via Campesina, Palos Verdes Estates, Los Angeles County, California, 90274, United States of America",90274
91,96122.0,33.793076,-118.37473600000001,"Via Campesina, Rancho Palos Verdes, Los Angeles County, California, 90274, United States of America",90274
92,96123.0,33.835696999999996,-118.384037,"South Francisca Avenue, Redondo Beach, Los Angeles County, California, 90277, United States of America",90277
93,96124.0,33.879216,-118.361434,"Inglewood Avenue, Redondo Beach, Los Angeles County, California, 90260, United States of America",90260
94,96125.0,33.954475,-118.18346799999999,"Atlantic Avenue, South Gate, Los Angeles County, California, 90201, United States of America",90201
95,96126.0,34.11671,-118.629076,"Topanga Skyline Drive, Topanga Park, Los Angeles County, California, 91302, United States of America",91302
96,96127.0,33.986458,-118.460783,"Olive Avenue, Venice, Los Angeles County, California, 90292, United States of America",90292
97,96127.99999999999,33.9886,-118.435,"Alla Road, Culver City, Los Angeles County, California, 90045, United States of America",90045
98,96128.99999999999,33.960738,-118.444111,"Zitola Terrace, Playa del Rey, LA, Los Angeles County, California, 90293, United States of America",90293
99,96133.00000000001,33.959896,-118.35043799999998,"Hillcrest Medical Center, East Hillcrest Boulevard, Inglewood, Los Angeles County, California, 90301, United States of America",90301
100,96134.0,33.978578000000006,-118.366625,"West Beach Avenue, Inglewood, Los Angeles County, California, 90304, United States of America",90304
101,96135.0,33.932815999999995,-118.31886100000001,"South Spinning Avenue, Inglewood, Los Angeles County, California, 90037, United States of America",90037
102,96136.0,33.9315,-118.352104,"McDonald's, Imperial Highway, Hawthorne, Los Angeles County, California, 90045, United States of America",90045
103,96137.0,33.960238000000004,-118.31998600000001,"Brownfield Medical Building, South 3rd Avenue, Inglewood, Los Angeles County, California, 90305, United States of America",90305
104,96148.0,34.021478,-118.495171,"Downtown LA Bicycles, 700, Wilshire Boulevard, Santa Monica, Los Angeles County, California, 90401, United States of America",90401
105,96149.0,34.047253999999995,-118.49014299999999,"Brentwood Country Mart, 26th Street, Santa Monica, Los Angeles County, California, CA 90272, United States of America",90272
106,96150.0,34.040001000000004,-118.47338,"Berkeley Street, Santa Monica, Los Angeles County, California, CA 90404, United States of America",90404
107,96151.0,34.0395,-118.471,"Franklin Street, Santa Monica, Los Angeles County, California, CA 90404, United States of America",90404
108,96152.0,34.012977,-118.479243,"Bay Street, Santa Monica, Los Angeles County, California, CA 90405, United States of America",90405
109,96159.00000000001,33.824365,-118.30328200000001,"223rd Street, Ironsides, LA, Los Angeles County, California, 90745, United States of America",90745
110,96160.0,33.828542999999996,-118.288255,"West 220th Street, Dolanco Junction, LA, Los Angeles County, California, 90502, United States of America",90502
111,96161.0,33.836999999999996,-118.34700000000001,"Torrance Boulevard, La Fresa, Torrance, Los Angeles County, California, 90277, United States of America",90277
112,96162.0,33.883966,-118.314172,"West 162nd Street, Gardena, Los Angeles County, California, 90504, United States of America",90504
113,96163.0,33.803768,-118.34982600000001,"Park Street, Torrance, Los Angeles County, California, 90505, United States of America",90505
114,96169.0,33.980509999999995,-118.049973,"Whittier Boulevard, Whittier, Los Angeles County, California, 90603, United States of America",90603
115,96170.0,33.975583,-118.041513,"Saint Marys Roman Catholic Church, Penn Street, East Whittier, Whittier, Los Angeles County, California, 90603, United States of America",90603
116,96171.0,33.948792,-118.02098600000001,"Flomar Drive, East Whittier, Whittier, Los Angeles County, California, 90603, United States of America",90603
117,96172.00000000001,33.92524,-118.03121999999999,"Starlight Avenue, South Whittier, Carmenita, Los Angeles County, California, 90604, United States of America",90604
118,96173.00000000001,33.928928000000006,-118.05363600000001,"Painter Avenue, Fulton Wells, Santa Fe Springs, Los Angeles County, California, 90604, United States of America",90604
119,96174.0,33.991234999999996,-118.05976799999999,"Orange Drive, Whittier, Los Angeles County, California, 90606, United States of America",90606
120,96180.0,33.839729999999996,-118.027091,"San Clemente Way, Buena Park, Orange County, California, 90620, United States of America",90620
121,96180.99999999999,33.877497,-118.002271,"Western Avenue, Buena Park, Orange County, California, 90638, United States of America",90638
122,96183.0,33.843038,-118.048718,"Bellhaven Street, La Palma, Orange County, California, 90623, United States of America",90623
123,96185.0,33.822561,-118.023844,"Juanita Street, Cypress, Orange County, California, 90630, United States of America",90630
124,96186.00000000001,33.957512,-117.96428300000001,"Subtropic Drive, La Habra Heights, Los Angeles County, California, 90631, United States of America",90631
125,96190.0,33.915599,-118.03135800000001,"Lakeside Drive, La Mirada, Los Angeles County, California, 90604, United States of America",90604
126,96192.0,34.02135,-118.130571,"Hay Street, Montebello, Los Angeles County, California, 90640, United States of America",90640
127,96193.0,33.897134,-118.102953,"Leibacher Avenue, Norwalk, Los Angeles County, California, 90650, United States of America",90650
128,96197.0,34.015545,-118.085974,"Cope Drive, Pico Rivera, Los Angeles County, California, 90640, United States of America",90640
129,96201.0,33.953559000000006,-118.083855,"Houghton Avenue, Fulton Wells, Santa Fe Springs, Los Angeles County, California, 90670, United States of America",90670
130,96203.0,33.7997,-117.99,"Pickens Lane, Stanton, Orange County, California, 90680, United States of America",90680
131,96204.0,33.856460999999996,-118.083541,"Buford Street, Cerritos, Los Angeles County, California, 90650, United States of America",90650
132,96206.0,33.881947,-118.064573,"Shadydale Lane, Cerritos, Los Angeles County, California, 90703, United States of America",90703
133,96207.0,33.341609999999996,-118.32392,"45, Upper Terrace Road, Avalon, Los Angeles County, California, 90704, United States of America",90704
134,96208.0,33.874476,-118.127752,"Hair Salon, Artesia Boulevard, Bellflower, Los Angeles County, California, 90701, United States of America",90701
135,96210.0,33.800045000000004,-118.293567,"Lomita Boulevard, Ironsides, Harbor City, Harbor Pines, Los Angeles County, California, 90710, United States of America",90710
136,96212.0,33.840990999999995,-118.14573100000001,"Fairman Street, Lakewood, Los Angeles County, California, 90712, United States of America",90712
137,96213.0,33.855353,-118.10415900000001,"Candor Street, Lakewood, Los Angeles County, California, 90713, United States of America",90713
138,96215.0,33.844338,-118.07011100000001,"Belshire Avenue, Lakewood, Los Angeles County, California, 90715, United States of America",90715
139,96216.0,33.829801,-118.06354499999999,"Melmour Lane, Hawaiian Gardens, Orange County, California, 90808, United States of America",90808
140,96217.0,33.795369,-118.31856,"Woodward Avenue, Lomita, Los Angeles County, California, 90717, United States of America",90717
141,96218.0,33.800071,-118.070627,"Farquhar Avenue, Los Alamitos, Orange County, California, 90720, United States of America",90720
142,96220.0,33.906779,-118.17702299999999,"Orange Avenue, Paramount, Los Angeles County, California, 90723, United States of America",90723
143,96221.0,33.750912,-118.28482199999999,"Viewland Place, San Pedro, LA, Los Angeles County, California, 90731, United States of America",90731
144,96222.0,33.724619,-118.326045,"Catalina Vista, San Pedro, LA, Los Angeles County, California, 90732-4418, United States of America",90732
145,96225.0,33.776647,-118.091655,"College Park Drive, Seal Beach, Orange County, California, 90740, United States of America",90740
146,96226.0,33.72358,-118.07658,"OCTA, Pacific Coast Highway, Sunset Beach, Orange County, California, 92648, United States of America",92648
147,96228.0,33.784618,-118.25081999999999,"Sanford Avenue, Wilmington, LA, Los Angeles County, California, 90744, United States of America",90744
148,96229.0,33.831074,-118.244565,"Martin Street, Keystone, Carson, Los Angeles County, California, 90744, United States of America",90744
149,96230.0,33.869547999999995,-118.262569,"Rainbury Avenue, Keystone, Carson, Los Angeles County, California, 90747, United States of America",90747
150,96234.0,33.801943,-118.157478,"Palm Drive Business Center;EPA, 2445, Palm Drive, Signal Hill, Los Angeles County, California, 90755, United States of America",90755
151,96236.0,33.773610999999995,-118.193771,"First Methodist Church, Pacific Avenue, Willowville, Long Beach, Los Angeles County, California, 90802, United States of America",90802
152,96237.0,33.767215,-118.11130700000001,"Golden Sands Drive, Marina Pacifica, Naples, Long Beach, Los Angeles County, California, 90803, United States of America",90803
153,96238.0,33.784778,-118.13824199999999,"Roycroft Avenue, Los Altos, Long Beach, Los Angeles County, California, 90804, United States of America",90804
154,96239.0,33.874912,-118.168701,"Mobil, East Artesia Boulevard, North Long Beach, Long Beach, Los Angeles County, California, 90706, United States of America",90706
155,96239.99999999999,33.809622,-118.199582,"West 29th Street, Willowville, Long Beach, Los Angeles County, California, 90806, United States of America",90806
156,96241.0,33.848433,-118.174227,"Matney Avenue, Bixby Knolls, Long Beach, Los Angeles County, California, 90807, United States of America",90807
157,96242.0,33.829087,-118.096717,"Parkcrest Street, Los Altos, Long Beach, Los Angeles County, California, 90808, United States of America",90808
158,96244.00000000001,33.820454,-118.217277,"Dolphin Drive, Vista del Mar, Long Beach, Los Angeles County, California, 90810, United States of America",90810
159,96245.00000000001,33.779270000000004,-118.16900700000001,"Gardenia Avenue, Willowville, Long Beach, Los Angeles County, California, 90806, United States of America",90806
160,96246.0,33.770827000000004,-118.15651299999999,"Orizaba Avenue, Belmont Shore, Long Beach, Los Angeles County, California, 90814, United States of America",90814
161,96247.0,33.800432,-118.14279199999999,"Lakewood Boulevard, Los Altos, Long Beach, Los Angeles County, California, 90815, United States of America",90815
162,96265.0,34.202428999999995,-118.123203,"Rubio Vista Drive, Altadena, Los Angeles County, California, 91001, United States of America",91001
163,96266.99999999999,34.170702,-118.026376,"Elkins Place, Arcadia, Los Angeles County, California, 91006, United States of America",91006
164,96267.99999999999,34.111765000000005,-118.04566899999999,"Holly Avenue, Arcadia, Los Angeles County, California, 91731, United States of America",91731
165,96270.00000000001,34.12917,-117.98988999999999,"Maxwell Elementary School, Euclid Avenue, Duarte, Los Angeles County, California, 91010, United States of America",91010
166,96271.00000000001,34.216353999999995,-118.22068999999999,"Lone Pine Lane, La Cañada Flintridge, Los Angeles County, California, 91020, United States of America",91020
167,96273.0,34.14075,-117.984895,"Sequoia Circle, Monrovia, Los Angeles County, California, CA 91786, United States of America",91786
168,96275.0,34.2124,-118.23899999999999,"Hermosa Avenue, Sparr Heights, Montrose, Glendale, Los Angeles County, California, 91046, United States of America",91046
169,96278.0,34.168655,-118.05231200000001,"North Baldwin Avenue, Sierra Madre, Los Angeles County, California, 91024, United States of America",91024
170,96279.99999999999,34.104619,-118.170794,"La Manzanita Street, South Pasadena, Los Angeles County, California, 91030, United States of America",91030
171,96282.0,34.263186,-118.355828,"McBroom Street, Shadow Hills, LA, Los Angeles County, California, 91040-1737, United States of America",91040
172,96284.00000000001,34.268309,-118.29910100000001,"Le Berthon Street, Sunland, LA, Los Angeles County, California, 91042-2137, United States of America",91042
173,96289.0,34.144225,-118.13233400000001,"Pasadena 10, South Lake Avenue, Madison Heights, Pasadena, Los Angeles County, California, 91030, United States of America",91030
174,96291.0,34.148283,-118.149156,"Armory Center for the Arts, Electric Drive, Madison Heights, Pasadena, Los Angeles County, California, 91103, United States of America",91103
175,96292.0,34.171205,-118.13178400000001,"North Lake Avenue, Washington Square, Pasadena, Los Angeles County, California, 91104, United States of America",91104
176,96292.99999999999,34.14233,-118.157533,"Saint John Avenue, Madison Heights, Pasadena, Los Angeles County, California, 91105, United States of America",91105
177,96294.0,34.126137,-118.141473,"Los Robles Avenue, Madison Heights, Pasadena, Los Angeles County, California, 91030, United States of America",91030
178,96295.0,34.1417,-118.09899999999999,"Santa Anita Avenue, Pasadena, Los Angeles County, California, 91776, United States of America",91776
179,96296.0,34.116477,-118.130147,"Oak Knoll Avenue, Oak Knoll, Pasadena, Los Angeles County, California, 91030, United States of America",91030
180,96313.0,34.139206,-118.159241,"Orange Grove Boulevard, Madison Heights, Pasadena, Los Angeles County, California, 91030, United States of America",91030
181,96320.0,34.183405,-118.27980600000001,"Foothill Drive, Glendale, Los Angeles County, California, 91204, United States of America",91204
182,96321.0,34.162541999999995,-118.26415800000001,"Silver Hanger Cleaners, 454, Stocker Street, Glendale, Los Angeles County, California, 91202, United States of America",91202
183,96322.0,34.1577,-118.262,"Burchett Street, Glendale, Los Angeles County, California, 91204, United States of America",91204
184,96323.0,34.144434999999994,-118.26066100000001,"Columbus Avenue, Glendale, Los Angeles County, California, 91204, United States of America",91204
185,96324.0,34.137817999999996,-118.23931499999999,"S Chevy Chase Drive, Glendale, Los Angeles County, California, 91204, United States of America",91204
186,96325.0,34.172391999999995,-118.19822099999999,"Buckingham Road, Montrose, Glendale, Los Angeles County, California, 91208, United States of America",91208
187,96326.0,34.173097,-118.25528999999999,"Rimcrest Drive, Montrose, Glendale, Los Angeles County, California, 91204, United States of America",91204
188,96327.0,34.206067,-118.234071,"Angelus Avenue, Sparr Heights, Montrose, Glendale, Los Angeles County, California, 91046, United States of America",91046
189,96329.0,34.143427,-118.254731,"Jamba Juice, S Brand Boulevard, Glendale, Los Angeles County, California, 91204, United States of America",91204
190,96330.0,34.245329,-118.256751,"Henrietta Avenue, Glendale, Los Angeles County, California, 91214, United States of America",91214
191,96336.0,34.156664,-118.753818,"Gleam Court, Agoura Hills, Los Angeles County, California, 91301, United States of America",91301
192,96337.0,34.144442,-118.65408400000001,"Tedregal Court, Calabasas, Los Angeles County, California, 91302, United States of America",91302
193,96338.0,34.205282000000004,-118.60739,"Runnymede Street, Canoga Park, LA, Los Angeles County, California, 91311, United States of America",91311
194,96339.0,34.228588,-118.59288600000001,"Variel Avenue, Canoga Park, LA, Los Angeles County, California, 91311, United States of America",91311
195,96341.0,34.214240000000004,-118.567127,"Hemmingway Street, Winnetka, LA, Los Angeles County, California, 91311, United States of America",91311
196,96342.0,34.211196,-118.69102,"Ranchero Road, Bell Canyon, Ventura County, California, United States of America",0
197,96346.0,34.245616,-118.59639299999999,"Superior Street, Chatsworth, LA, Los Angeles County, California, 91311, United States of America",91311
198,96349.0,34.186094,-118.52390700000001,"Enfield Avenue, Reseda, LA, Los Angeles County, California, 91406-5441, United States of America",91406
199,96350.99999999999,34.196427,-118.958804,"Vista Conejo, Thousand Oaks, Ventura County, California, 91320, United States of America",91320
200,96352.0,34.371722,-118.55804099999999,"Hawkbryn Avenue, Newhall, Santa Clarita, Los Angeles County, California, 91381, United States of America",91381
201,96354.0,34.233366,-118.549198,"Vanalden Avenue, Porter Ranch, Los Angeles County, California, 91311, United States of America",91311
202,96355.0,34.220631,-118.521001,"Roscoe Boulevard, Northridge, LA, Los Angeles County, California, 91325-3301, United States of America",91325
203,96356.0,34.291173,-118.577875,"Androwe Lane, Chatsworth, LA, Los Angeles County, California, 91326-4109, United States of America",91326
204,96361.0,34.267763,-118.406278,"Glenoaks Boulevard, Pacoima, LA, Los Angeles County, California, 91331-2536, United States of America",91331
205,96364.0,34.189273,-118.545075,"Easy Street, Reseda, LA, Los Angeles County, California, 91335, United States of America",91335
206,96366.0,34.289776,-118.43208500000001,"De Garmo Street, San Fernando, Los Angeles County, California, 91340, United States of America",91340
207,96368.0,34.3089,-118.46161299999999,"Bledsoe Street, Sylmar, LA, Los Angeles County, California, 91342-4119, United States of America",91342
208,96369.00000000001,34.249449,-118.456014,"Lassen Street, North Hills, Los Angeles County, California, 91343, United States of America",91343
209,96370.00000000001,34.265214,-118.52021699999999,"Deodar Cedar, White Oak Avenue, Granada Hills, Northridge, LA, Los Angeles County, California, CA 91344, United States of America",91344
210,96371.0,34.271503,-118.46749399999999,"Sepulveda Boulevard, Mission Hills, Sylmar, LA, Los Angeles County, California, 91343, United States of America",91343
211,96373.0,34.416889000000005,-118.50580500000001,"Ashley Furniture Homestore, 26520, Golden Triangle Road, Honby, Canyon Country, Santa Clarita, Los Angeles County, California, 91350, United States of America",91350
212,96374.0,34.413579999999996,-118.459677,"Santa Clara River Trail, Mint Canyon, Canyon Country, Santa Clarita, Los Angeles County, California, 91351-3521, United States of America",91351
213,96375.0,34.2144,-118.37299999999999,"Arminta Street, Sun Valley, North Hollywood, LA, Los Angeles County, California, 91352, United States of America",91352
214,96377.0,34.447747,-118.56505600000001,"Copperstone Drive, Valencia, Santa Clarita, Los Angeles County, California, 91354, United States of America",91354
215,96377.99999999999,34.389913,-118.565719,"Vista Fairways Drive, Valencia, Santa Clarita, Los Angeles County, California, 91381, United States of America",91381
216,96378.99999999999,34.174112,-118.561783,"Martha Street, Tarzana, LA, Los Angeles County, California, 91356-3213, United States of America",91356
217,96383.00000000001,34.230515999999994,-118.874495,"Lucero Street, Thousand Oaks, Ventura County, California, 91360, United States of America",91360
218,96384.0,34.147257,-118.87313200000001,"Abbotsbury Street, Greenwich Village, Ventura County, California, 911360, United States of America",0
219,96385.0,34.167903,-118.83411299999999,"East Thousand Oaks Boulevard, Thousand Oaks, Ventura County, California, 91361, United States of America",91361
220,96387.0,34.158658,-118.62574,"Bruges Avenue, Woodland Hills, LA, Los Angeles County, California, 91302, United States of America",91302
221,96389.0,34.1843,-118.65700000000001,"Victory Boulevard, West Hills, LA, Los Angeles County, California, 91302, United States of America",91302
222,96392.99999999999,34.192915,-118.777662,"Gentilly Place, Oak Park, Ventura County, California, 91377, United States of America",91377
223,96395.00000000001,34.391119,-118.582241,"Burns Place, Stevenson Ranch, Los Angeles County, California, 91381, United States of America",91381
224,96398.0,34.49154,-118.625952,"Cherry Drive, Castaic, Los Angeles County, California, 91384, United States of America",91384
225,96401.0,34.422841999999996,-118.42448300000001,"Sand Canyon Road, Mint Canyon, Sand Canyon, Santa Clarita, Los Angeles County, California, 91387, United States of America",91387
226,96403.0,34.485778,-118.464883,"Bouquet Canyon Road, Saugus, Santa Clarita, Los Angeles County, California, 91390, United States of America",91390
227,96410.0,34.18997,-118.442326,"Haynes Street, North Sherman Way, Van Nuys, LA, Los Angeles County, California, 91401-2649, United States of America",91401
228,96411.0,34.219118,-118.463609,"Burnet Avenue, North Hills, Los Angeles County, California, 91343, United States of America",91343
229,96412.0,34.1654,-118.465,"Nazareth House for Boys, Magnolia Boulevard, Sherman Oaks, LA, Los Angeles County, California, 91403-1530, United States of America",91403
230,96414.0,34.208749,-118.451998,"Tobias Avenue, North Sherman Way, Panorama City, LA, Los Angeles County, California, 91343, United States of America",91343
231,96415.0,34.209694,-118.49831299999998,"Saticoy Street, Reseda, LA, Los Angeles County, California, 91406-1232, United States of America",91406
232,96420.0,34.189288,-118.45896200000001,"Hamlin Street, North Sherman Way, Van Nuys, LA, Los Angeles County, California, 91411, United States of America",91411
233,96424.0,34.148863,-118.437206,"Costello Avenue, Sherman Oaks, LA, Los Angeles County, California, 91423, United States of America",91423
234,96426.0,34.159751,-118.495101,"Rubio Avenue, Encino, LA, Los Angeles County, California, 91316-3402, United States of America",91316
235,96433.0,34.1802,-118.301,"East Providencia Avenue, Burbank, Los Angeles County, California, 91501, United States of America",91501
236,96434.0,34.171345,-118.3149,"West Tujunga Avenue, Burbank, Los Angeles County, California, 91502, United States of America",91502
237,96436.00000000001,34.21821,-118.33131100000001,"Wedgewood Lane, Burbank, Los Angeles County, California, 91504, United States of America",91504
238,96437.0,34.208671,-118.34903899999999,"Hollywood Way, North Hollywood, LA, Los Angeles County, California, 91504, United States of America",91504
239,96438.0,34.181892,-118.33591799999999,"North Lincoln Street, Burbank, Los Angeles County, California, 91504, United States of America",91504
240,96446.0,34.171873,-118.38090600000001,"First Assembly of God Church, Burbank Boulevard, North Hollywood, LA, Los Angeles County, California, 91601-3121, United States of America",91601
241,96447.0,34.156294,-118.37550700000001,"Blix Street, La Paco, North Hollywood, LA, Los Angeles County, California, 91602-2121, United States of America",91602
242,96449.0,34.154222999999995,-118.409176,"Sarah Street, Studio City, Valley Village, LA, Los Angeles County, California, CA 91607, United States of America",91607
243,96450.0,34.194168,-118.38581599999999,"Vanowen Street, Hewitt, North Hollywood, LA, Los Angeles County, California, 91605-5738, United States of America",91605
244,96451.0,34.1906,-118.37100000000001,"Kittridge Street, Hewitt, North Hollywood, LA, Los Angeles County, California, 91606, United States of America",91606
245,96452.0,34.178694,-118.39236000000001,"Radford Avenue, Garnsey, North Hollywood, LA, Los Angeles County, California, 91606, United States of America",91606
246,96453.0,34.143139,-118.33543799999998,"Forest Lawn Drive, Hollywood Hills, LA, Los Angeles County, California, 90028, United States of America",90028
247,96464.0,34.113493,-117.91291399999999,"Boulder Street, Azusa, Los Angeles County, California, 91702, United States of America",91702
248,96465.0,34.105016,-117.9427,"Azusa Canyon Road, Baldwin Park, Los Angeles County, California, 91706, United States of America",91706
249,96467.0,34.021308000000005,-117.74795,"Chino Valley Freeway, Pomona, Los Angeles County, California, 91766, United States of America",91766
250,96469.0,34.111748999999996,-117.742921,"Lealma Avenue, Claremont, Los Angeles County, California, 91711, United States of America",91711
251,96473.0,34.098516,-117.909131,"North Azusa Avenue, Covina, Los Angeles County, California, 91722, United States of America",91722
252,96474.0,34.088576,-117.872956,"North Grand Avenue, Covina, Los Angeles County, California, 91740, United States of America",91740
253,96475.0,34.105887,-117.84111299999999,"Foothill Transit 492, East Arrow Highway, Charter Oak, Los Angeles County, California, 91740, United States of America",91740
254,96478.0,34.089943,-118.02571999999999,"Ranchito Street, El Monte, Los Angeles County, California, 91732, United States of America",91732
255,96479.0,34.047198,-118.013567,"South Riverside, El Monte, Los Angeles County, California, 91731, United States of America",91731
256,96480.0,34.035689,-118.042899,"Durfee Avenue, South El Monte, Los Angeles County, California, 91731, United States of America",91731
257,96485.0,34.128204,-117.874545,"West Alosta Avenue, Glendora, Los Angeles County, California, 91740, United States of America",91740
258,96486.0,34.143091999999996,-117.883804,"West Leadora Avenue, Glendora, Los Angeles County, California, 91741, United States of America",91741
259,96488.0,34.016009000000004,-117.94745900000001,"Abbey Street, La Puente, Los Angeles County, California, 91744, United States of America",91744
260,96489.0,34.031186,-118.00385700000001,"Wildwood Way, Hacienda Heights, Avocado Heights, Los Angeles County, California, 91744, United States of America",91744
261,96489.99999999999,34.044283,-117.99046399999999,"Workman Mill Road, Industry, Los Angeles County, California, 91706, United States of America",91706
262,96492.0,33.991203000000006,-117.89227199999999,"Willow Street, Otterbein, Los Angeles County, California, 91748, United States of America",91748
263,96494.00000000001,34.093087,-117.758576,"Sierra Way, Le Verne, Los Angeles County, California, 91750, United States of America",91750
264,96496.0,34.057078999999995,-118.15715,"Alzado Street, Monterey Park, Los Angeles County, California, 91754, United States of America",91754
265,96497.0,34.0656,-118.119,"North Nicholson Avenue, Monterey Park, Los Angeles County, California, 91776, United States of America",91776
266,96500.0,34.2392,-117.661,"Bear Canyon Drive, Mount Baldy, Los Angeles County, California, 91784, United States of America",91784
267,96505.0,33.971033,-117.85066599999999,"Brea Canyon Cut Off Road, Diamond Bar, Los Angeles County, California, 91789, United States of America",91789
268,96506.0,34.041235,-117.791327,"Rancho Laguna Drive, Pomona, Los Angeles County, California, 91766, United States of America",91766
269,96507.00000000001,34.110741,-117.745979,"Briarcroft Road, Claremont, Los Angeles County, California, 91711, United States of America",91711
270,96508.00000000001,34.046387,-117.815445,"Polyona Islander, Pomona Islander Mobile Home Park, Pomona, Los Angeles County, California, 91765, United States of America",91765
271,96510.0,34.061774,-118.075048,"Stingle Avenue, Rosemead, Los Angeles County, California, 91776, United States of America",91776
272,96513.0,34.104009999999995,-117.832104,"Elm, San Dimas, Los Angeles County, California, 91773, United States of America",91773
273,96514.0,34.107315,-118.105442,"Milton Drive, San Gabriel, Los Angeles County, California, 91776, United States of America",91776
274,96515.0,34.096844,-118.10766399999999,"San Gabriel Mission Elementary School, South Mission Drive, San Gabriel, Los Angeles County, California, 91776, United States of America",91776
275,96516.99999999999,34.115784000000005,-118.06744199999999,"Oak Avenue, Temple City, Los Angeles County, California, 91770, United States of America",91770
276,96522.0,34.007975,-117.841778,"Washington Street, Diamond Bar, Los Angeles County, California, 91765, United States of America",91765
277,96523.0,34.087918,-117.93358400000001,"Irwindale Avenue Frontage Road, Orange Avenue Junction, Los Angeles County, California, 91706, United States of America",91706
278,96524.0,34.067264,-117.870419,"Grand Avenue, West Covina, Los Angeles County, California, 91791, United States of America",91791
279,96525.0,34.012754,-117.86881899999999,"South Flemington Drive, West Covina, Los Angeles County, California, 91792, United States of America",91792
280,96530.99999999999,34.096065,-118.15253,"Mobil, Main Street, Alhambra, Los Angeles County, California, 91030, United States of America",91030
281,96533.00000000001,34.086959,-118.152878,"7-Eleven, Commonwealth Avenue, Alhambra, Los Angeles County, California, 91030, United States of America",91030
282,96859.0,34.359245,-117.65293500000001,"Cardinal Road, Los Angeles County, California, United States of America",0
283,96939.0,33.737185,-117.751869,"Stetson, Orchard Hills, Irvine, Orange County, California, 92602, United States of America",92602
284,96940.0,33.633459,-117.819377,"Sierra Mia Road, Turtle Rock, Irvine, Orange County, California, 92617, United States of America",92617
285,96941.0,33.693663,-117.776048,"Comet Street, El Camino Real, Irvine, Orange County, California, 92604, United States of America",92604
286,96943.0,33.691186,-117.80278500000001,"Santa Eulalia, Westpark, Irvine, Orange County, California, 92606, United States of America",92606
287,96946.0,33.686873999999996,-117.66843300000001,"40, Fairfield, Foothill Ranch, Lake Forest, Orange County, California, 92610, United States of America",92610
288,96947.0,33.659879,-117.80861100000001,"Tamarack Way, Woodbridge, Irvine, Orange County, California, 92612, United States of America",92612
289,96948.0,33.673481,-117.823935,"Beaver Street, Woodbridge, Irvine, Orange County, California, 92614, United States of America",92614
290,96951.0,33.634949,-117.83233999999999,"University Hills Space Park, Pauling Court, University Hills, Turtle Rock, Irvine, Orange County, California, 92617, United States of America",92617
291,96952.0,33.700728999999995,-117.72793300000001,"157, Speckled Alder, Residential Area, Irvine, Orange County, California, 92618, United States of America",92618
292,96953.0,33.729743,-117.63072199999999,"Pleasant Avenue, Silverado, Orange County, California, 92676, United States of America",92676
293,96954.0,33.687181,-117.753231,"78, Gardenhouse Way, Cypress Village, Irvine, Orange County, California, 92620, United States of America",92620
294,96956.0,33.458346,-117.66638999999999,"Calle Las Flores, Dana Point, Orange County, California, 92624, United States of America",92624
295,96957.0,33.605048,-117.87936699999999,"Altura Drive, Corona del Mar, Newport Beach, Orange County, California, 92625, United States of America",92625
296,96958.0,33.690321000000004,-117.92726599999999,"Michigan Avenue, Costa Mesa, Orange County, California, 92626, United States of America",92626
297,96959.0,33.646578999999996,-117.90260900000001,"Camellia Lane, Costa Mesa, Orange County, California, 92627, United States of America",92627
298,96961.0,33.480095,-117.683016,"Via Lenita, San Juan Capistrano, Orange County, California, 92629, United States of America",92629
299,96962.0,33.670038,-117.687276,"Goldenrod, The Highlands at Baker Ranch, Foothill Ranch, Lake Forest, Orange County, California, 92618, United States of America",92618
300,96963.0,33.6168,-117.71700000000001,"Via Puerta, Laguna Woods, Orange County, California, 92691, United States of America",92691
301,96964.0,33.641123,-117.96851299999999,"Islander Lane, Huntington Beach, Orange County, California, 92646, United States of America",92646
302,96965.0,33.720658,-117.97830900000001,"Lucia Lane, Little Saigon, Westminster, Orange County, California, 92647, United States of America",92647
303,96966.0,33.674655,-118.001047,"Main Street, Huntington Beach, Orange County, California, 92648, United States of America",92648
304,96967.0,33.723568,-118.05171399999999,"Huntington Harbor Mhp, Huntington Harbor Mobile Home Park, Huntington Beach, Orange County, California, 92649, United States of America",92649
305,96969.0,33.555282,-117.808999,"Shamrock Road, Laguna Beach, Orange County, California, 92651, United States of America",92651
306,96971.0,33.620265,-117.73452900000001,"Ancona, Laguna Hills, Orange County, California, 92653, United States of America",92653
307,96973.0,33.746235999999996,-117.984714,"Washington Avenue, Little Saigon, Midway City, Orange County, California, 92655, United States of America",92655
308,96974.0,33.603115,-117.721337,"Via San Pablo, Aliso Viejo, Orange County, California, 92656, United States of America",92656
309,96975.0,33.601303,-117.82888100000001,"Seahaven, Corona del Mar, Newport Beach, Orange County, California, 92617, United States of America",92617
310,96978.0,33.621178,-117.879309,"Colony Plaza, Newport Center, Newport Beach, Orange County, California, 92661, United States of America",92661
311,96979.0,33.604844,-117.911645,"West Balboa Boulevard, Balboa Island, Newport Beach, Orange County, California, 92663, United States of America",92663
312,96980.0,33.607797,-117.89303999999998,"Coral Avenue, Balboa Island, Newport Beach, Orange County, California, 92662, United States of America",92662
313,96981.0,33.629016,-117.95150500000001,"Orange Street, Newport Beach, Orange County, California, 92663, United States of America",92663
314,96982.0,33.434117,-117.609973,"253, Avenida la Cuesta, San Clemente, Orange County, California, 92672, United States of America",92672
315,96983.0,33.460947999999995,-117.65241599999999,"Calle Casino, San Clemente, Orange County, California, 92673, United States of America",92673
316,96985.0,33.490209,-117.682327,"Via Inez Road, San Juan Capistrano, Orange County, California, 92675, United States of America",92675
317,96986.0,33.708355,-117.62896599999999,"Modjeska Canyon Road, Foothill Ranch, Modjeska, Orange County, California, 92679, United States of America",92679
318,96987.0,33.559707,-117.703756,"Motherlode Court, Village Niguel Heights, Laguna Niguel, Orange County, California, 92677, United States of America",92677
319,96988.0,33.661775,-117.588518,"Mountain View Road, Robinson Ranch, Trabuco Canyon, Orange County, California, 92679, United States of America",92679
320,96988.99999999999,33.68303,-117.62749099999999,"28846, Oakview Lane, Foothill Ranch, Lake Forest, Orange County, California, 92679, United States of America",92679
321,96990.0,33.748083,-117.948108,"Mast Avenue, Garden Grove, Orange County, California, 92683, United States of America",92683
322,96993.0,33.58166,-117.627096,"Crystalaire, Las Flores, Ladera Ranch, Orange County, California, 92691, United States of America",92691
323,96995.0,33.61213,-117.686996,"Roma Drive, Mission Viejo, Orange County, California, 92691, United States of America",92691
324,96996.0,33.5445,-117.66328899999999,"Escalona Drive, Mission Viejo, Orange County, California, 92692, United States of America",92692
325,96998.0,33.525974,-117.621817,"Glicina Street, Orange County, California, 92675, United States of America",92675
326,97001.0,33.736919,-117.86810700000001,"West Highland Street, Santa Ana, Orange County, California, 92701, United States of America",92701
327,97002.99999999999,33.7465,-117.925,"1st Street, Santa Ana, Orange County, California, 92683, United States of America",92683
328,97004.0,33.735580999999996,-117.933454,"South Corta Drive, Santa Ana, Orange County, California, 92704, United States of America",92704
329,97005.0,33.775205,-117.819795,"Romelle Avenue, Orange, Orange County, California, 92705, United States of America",92705
330,97006.0,33.768121,-117.884235,"Marion Way, Santa Ana, Orange County, California, 92706, United States of America",92706
331,97007.00000000001,33.734732,-117.87633100000001,"South Flower Street, Santa Ana, Orange County, California, 92703, United States of America",92703
332,97008.00000000001,33.731646999999995,-117.938405,"Royale Court, Fountain Valley, Orange County, California, 92708, United States of America",92708
333,97015.99999999999,33.72665,-117.80846499999998,"Seville Street, Villa Valencia Mobile Estates, Browning, Tustin, Orange County, California, 92780, United States of America",92780
334,97018.0,33.737521,-117.796655,"Carrera, Tustin Ranch, Tustin, Orange County, California, 92782, United States of America",92782
335,97020.00000000001,33.836971000000005,-117.93363899999999,"West Wedgewood Drive, West Anaheim, Anaheim, Orange County, California, 92801, United States of America",92801
336,97021.00000000001,33.821348,-117.92735,"West Chateau Avenue, West Anaheim, Anaheim, Orange County, California, 92801, United States of America",92801
337,97023.0,33.827543,-117.99499399999999,"Baker Drive, Anaheim, Orange County, California, 90680, United States of America",90680
338,97024.0,33.837703999999995,-117.92113,"Harbor Boulevard, West Anaheim, Anaheim, Orange County, California, 92801, United States of America",92801
339,97025.0,33.846973999999996,-117.87613999999999,"5B, Orange Freeway, Anaheim, Orange County, California, 92831, United States of America",92831
340,97026.0,33.836325,-117.773025,"Ruby Lane, Anaheim Hills, Anaheim, Orange County, California, 92807, United States of America",92807
341,97027.0,33.867668,-117.73934299999999,"East Saratoga Street, Anaheim Hills, Anaheim, Orange County, California, 92808, United States of America",92808
342,97035.0,33.907003,-117.89848500000001,"East Alder Street, Downtown Brea, Brea, Orange County, California, 92821, United States of America",92821
343,97037.0,33.910143,-117.84749,"Nasa Street, Brea, Orange County, California, 92821, United States of America",92821
344,97039.0,33.875305,-117.910794,"North Lincoln Avenue, Downtown Fullerton, Fullerton, Orange County, California, 92831, United States of America",92831
345,97040.0,33.863685,-117.938506,"West Rosslynn Avenue, Downtown Fullerton, Fullerton, Orange County, California, 92832, United States of America",92832
346,97041.0,33.867686,-117.978094,"Kellogg Avenue, Fuller Park, Fullerton, Orange County, California, 92833, United States of America",92833
347,97042.99999999999,33.881381,-117.93754399999999,"North Woods Avenue, Downtown Fullerton, Fullerton, Orange County, California, 92835, United States of America",92835
348,97047.00000000001,33.777493,-117.942733,"Stanford Avenue, Koreatown, Garden Grove, Orange County, California, 92840, United States of America",92840
349,97048.0,33.791627000000005,-117.983585,"Yana Drive, Koreatown, Garden Grove, Orange County, California, 92841, United States of America",92841
350,97050.0,33.768515,-117.95041699999999,"Deanann Place, Koreatown, Garden Grove, Orange County, California, 92843, United States of America",92843
351,97051.0,33.772273999999996,-117.988433,"Larson Avenue, Koreatown, Garden Grove, Orange County, California, 92844, United States of America",92844
352,97052.0,33.786902000000005,-118.01438,"Amy Avenue, Koreatown, Garden Grove, Orange County, California, 92845, United States of America",92845
353,97059.0,33.816308,-117.808494,"Jocotal Avenue, Villa Park, Orange County, California, 92861, United States of America",92861
354,97063.0,33.8375,-117.84700000000001,"North Santa Fe Place, Greystone Crossing, Orange, Orange County, California, 92865, United States of America",92865
355,97064.0,33.794554999999995,-117.855899,"North Cypress Street, Orange, Orange County, California, 92866, United States of America",92866
356,97065.0,33.797118,-117.850447,"Morlan Hall, North Center Street, Orange, Orange County, California, 92867, United States of America",92867
357,97066.0,33.793279,-117.862342,"West Sycamore Avenue, Orange, Orange County, California, 92868, United States of America",92868
358,97067.0,33.736471,-117.755999,"Narrow Path, Orchard Hills, Irvine, Orange County, California, 92602, United States of America",92602
359,97068.0,33.905285,-117.844108,"Imperial Highway, Old Town Placentia, Placentia, Orange County, California, 92886, United States of America",92886
360,97078.0,33.905073,-117.831254,"Chicago Avenue, Yorba Linda, Orange County, California, 92886, United States of America",92886
361,97079.0,33.888965999999996,-117.70366399999999,"Big Horn Mountain Way, Vista Bel Aire, Yorba Linda, Orange County, California, 92887, United States of America",92887
362,97081.0,34.384437,-119.299057,"East Old Creek Road, Oak View, Ventura County, California, 93022, United States of America",93022
363,97083.0,34.262892,-119.240051,"Barr Drive, Ventura, Ventura County, California, 93003, United States of America",93003
364,97084.0,34.293296999999995,-119.16891100000001,"Placer Avenue, Foothill East, Ventura, Ventura County, California, 93004, United States of America",93004
365,97088.0,34.386181,-119.43736100000001,"Carver Summit Drive, La Conchita, Ventura County, California, 93001, United States of America",93001
366,97089.0,34.246429,-119.075276,"Calle del Norte, Spanish Hills, Ventura County, California, CA 93010, United States of America",93010
367,97091.0,34.215717,-118.996641,"Hidalgo Street, Camarillo, Ventura County, California, CA 93012, United States of America",93012
368,97092.0,34.375505,-119.472551,"Ralph Fertig Memorial Bike Path, Rincon, Ventura County, California, 93001, United States of America",93001
369,97094.0,34.37834,-118.93601299999999,"Riverside Avenue, Bardsdale, Ventura County, California, 93015, United States of America",93015
370,97096.0,34.2756,-118.88,"Millard Street, Moorpark, Ventura County, California, 93021, United States of America",93021
371,97097.0,34.273201,-118.90596200000002,"Heather Glen Court, Moorpark, Ventura County, California, 93020, United States of America",93020
372,97098.0,34.411071,-119.295022,"North Ventura Avenue, Oak View, Ventura County, California, 93022, United States of America",93022
373,97099.0,34.430592,-119.158001,"Sulphur Mountain Road, Ventura County, California, United States of America",0
374,97101.0,34.192481,-119.174775,"Driffill Boulevard, Oxnard, Ventura County, California, 93033-3245, United States of America",93033
375,97104.0,34.164815000000004,-119.137948,"Yosemite Drive, Oxnard Pacific Mobile Estates, Oxnard, Ventura County, California, 93033, United States of America",93033
376,97106.0,34.185999,-119.20668300000001,"West Hill Street, Oxnard, Ventura County, California, 93035-1203, United States of America",93035
377,97107.0,34.225441,-119.19324499999999,"Gardenia Street, Oxnard, Ventura County, California, 93036-2007, United States of America",93036
378,97108.0,34.413587,-118.79405700000001,"Main Street, Piru, Ventura County, California, 93040, United States of America",93040
379,97109.0,34.179349,-119.195678,"East Elfin Green, Port Hueneme, Ventura County, California, 93043, United States of America",93043
380,97111.0,34.154941,-119.202472,"Pleasant Valley Road, Port Hueneme, Ventura County, California, 93041, United States of America",93041
381,97113.0,34.3554,-119.06,"117, North 10th Street, Santa Paula, Ventura County, California, 93060, United States of America",93060
382,97116.0,34.260898,-118.67116100000001,"Katey Lane, Santa Susana Knolls, Ventura County, California, 93062, United States of America",93062
383,97118.0,34.275482000000004,-118.809331,"Algonquin Drive, Greek Track, Simi Valley, Ventura County, California, 93065, United States of America",93065
384,97119.00000000001,34.28464,-119.001951,"Kingsgrove Drive, Somis, Ventura County, California, 93066, United States of America",93066
385,97164.0,34.749039,-119.09003500000001,"Greenleaf Springs Road, Stauffer, Ventura County, California, United States of America",0
386,97177.0,34.757954,-118.798107,"Ralphs Ranch Road, Caswell, Los Angeles County, California, United States of America",0
387,97185.00000000001,34.697879,-119.306322,"Lockwood Valley Road, Ventura County, California, United States of America",0
388,97298.0,34.4879,-118.17200000000001,"Stallion Meadows Trail, Paris, Los Angeles County, California, 93510, United States of America",93510
389,97316.0,34.65692,-118.38525700000001,"Cabin Drive, Andrade Corner, Los Angeles County, California, United States of America",0
390,97317.0,34.690736,-118.135225,"Sierra Highway, Lancaster, Los Angeles County, California, 93536, United States of America",93536
391,97318.0,34.733959999999996,-118.139298,"West Avenue G, Lancaster, Los Angeles County, California, 93536, United States of America",93536
392,97319.0,34.647495,-118.23188300000001,"West Avenue L 14, Lancaster, Los Angeles County, California, United States of America",0
393,97323.0,34.559273,-117.94859699999999,"East Avenue R 14, Antelope Center, Los Angeles County, California, 93543, United States of America",93543
394,97324.00000000001,34.474940000000004,-117.841521,"Saint Anne Drive, Valyermo, Los Angeles County, California, CA 93544, United States of America",93544
395,97328.0,34.571089,-118.065097,"Clubhouse, Palmdale, Los Angeles County, California, 93552, United States of America",93552
396,97329.0,34.585014,-118.16201000000001,"Ashberry Drive, Palmdale, Los Angeles County, California, United States of America",0
397,97330.0,34.563376,-118.019104,"Giavon Street, Palmdale, Los Angeles County, California, 93552, United States of America",93552
398,97331.0,34.485886,-117.868996,"Valyermo Road, Longview, Los Angeles County, California, 93553, United States of America",93553
399,97336.0,34.814163,-118.307128,"100th Street West, Antelope Acres, Los Angeles County, California, United States of America",0
400,97339.0,34.412306,-117.771902,"Largo Vista Road, Mile High, Los Angeles County, California, 93563, United States of America",93563
401,97344.0,34.5793,-117.949573,"East Palmdale Boulevard, Palmdale, Los Angeles County, California, 93591, United States of America",93591
402,399675.0,34.153308,-117.97968,"Barranca Road, Bradbury, Los Angeles County, California, 91008, United States of America",91008
